NORAD_CAT_ID,OBJECT_NAME,OBJECT_TYPE,EPOCH,MEAN_MOTION,ECCENTRICITY,INCLINATION,RA_OF_ASC_NODE,ARG_OF_PERICENTER,MEAN_ANOMALY,BSTAR,MEAN_MOTION_DOT,MEAN_MOTION_DDOT,TLE_LINE0,TLE_LINE1,TLE_LINE2,SEMIMAJOR_AXIS,PERIOD,APOGEE,PERIGEE,DECAYED
52281.0,STARLINK-3779,PAYLOAD,2023-07-27 23:03:21,15.08831203,9.19e-05,53.2184,79.5598,83.8918,276.2179,-2.8553e-05,-7.42e-06,0.0,0 STARLINK-3779,1 52281U 22041W   23208.96066036 -.00000742  00000-0 -28553-4 0  9990,2 52281  53.2184  79.5598 0000919  83.8918 276.2179 15.08831203 71308,6917.907,95.438,540.408,539.137,0.0
52281.0,STARLINK-3779,PAYLOAD,2023-07-28 02:14:07,15.08834038,8.98e-05,53.2183,78.9646,82.5951,277.5143,-3.4725e-07,-2.93e-06,0.0,0 STARLINK-3779,1 52281U 22041W   23209.09313860 -.00000293  00000-0 -34725-6 0  9996,2 52281  53.2183  78.9646 0000898  82.5951 277.5143 15.08834038 70104,6917.899,95.438,540.385,539.142,0.0
52281.0,STARLINK-3779,PAYLOAD,2023-07-28 18:07:57,15.08848058,0.0001016,53.2172,75.9904,84.0604,276.0504,7.672e-05,9.34e-06,0.0,0 STARLINK-3779,1 52281U 22041W   23209.75552856  .00000934  00000-0  76720-4 0  9998,2 52281  53.2172  75.9904 0001016  84.0604 276.0504 15.08848058 71429,6917.856,95.437,540.424,539.018,0.0
52281.0,STARLINK-3779,PAYLOAD,2023-07-29 19:34:08,15.08842852,0.0001021,53.2175,71.233,74.2195,285.8909,0.00016933,2.408e-05,0.0,0 STARLINK-3779,1 52281U 22041W   23210.81537235  .00002408  00000-0  16933-3 0  9998,2 52281  53.2175  71.2330 0001021  74.2195 285.8909 15.08842852 71586,6917.872,95.437,540.443,539.03,0.0
52281.0,STARLINK-3779,PAYLOAD,2023-07-30 00:20:17,15.08855927,9.24e-05,53.2169,70.3396,75.8251,284.2844,0.00045951,7.036e-05,0.0,0 STARLINK-3779,1 52281U 22041W   23211.01408840  .00007036  00000-0  45951-3 0  9994,2 52281  53.2169  70.3396 0000924  75.8251 284.2844 15.08855927 71614,6917.832,95.437,540.336,539.057,0.0
52281.0,STARLINK-3779,PAYLOAD,2023-07-30 17:49:32,15.08841756,0.0001348,53.2181,67.0696,73.6187,286.4953,8.4208e-05,1.053e-05,0.0,0 STARLINK-3779,1 52281U 22041W   23211.74273152  .00001053  00000-0  84208-4 0  9992,2 52281  53.2181  67.0696 0001348  73.6187 286.4953 15.08841756 71721,6917.875,95.437,540.673,538.807,0.0
52281.0,STARLINK-3779,PAYLOAD,2023-07-31 00:11:04,15.08848076,0.0001094,53.2178,65.8787,88.3008,271.8109,0.00013462,1.856e-05,0.0,0 STARLINK-3779,1 52281U 22041W   23212.00768683  .00001856  00000-0  13462-3 0  9994,2 52281  53.2178  65.8787 0001094  88.3008 271.8109 15.08848076 71764,6917.856,95.437,540.478,538.964,0.0
52281.0,STARLINK-3779,PAYLOAD,2023-07-31 17:40:19,15.08835956,0.0001142,53.2168,62.6094,87.178,272.9343,-5.1393e-05,-1.106e-05,0.0,0 STARLINK-3779,1 52281U 22041W   23212.73633403 -.00001106  00000-0 -51393-4 0  9991,2 52281  53.2168  62.6094 0001142  87.1780 272.9343 15.08835956 71874,6917.893,95.438,540.548,538.968,0.0
52281.0,STARLINK-3779,PAYLOAD,2023-08-01 00:01:51,15.08844011,0.0001081,53.2184,61.4189,92.9962,267.1153,4.3657e-05,4.07e-06,0.0,0 STARLINK-3779,1 52281U 22041W   23213.00129015  .00000407  00000-0  43657-4 0  9996,2 52281  53.2184  61.4189 0001081  92.9962 267.1153 15.08844011 71914,6917.868,95.437,540.481,538.985,0.0
52281.0,STARLINK-3779,PAYLOAD,2023-08-01 17:31:06,15.08838131,9.96e-05,53.218,58.1476,95.1222,264.9884,3.1537e-05,2.14e-06,0.0,0 STARLINK-3779,1 52281U 22041W   23213.72993642  .00000214  00000-0  31537-4 0  9990,2 52281  53.2180  58.1476 0000996  95.1222 264.9884 15.08838131 72025,6917.886,95.438,540.44,539.062,0.0
52281.0,STARLINK-3779,PAYLOAD,2023-08-01 23:52:38,15.08845698,9.87e-05,53.2179,56.9578,93.6314,266.4791,9.8098e-05,1.274e-05,0.0,0 STARLINK-3779,1 52281U 22041W   23213.99489038  .00001274  00000-0  98098-4 0  9990,2 52281  53.2179  56.9578 0000987  93.6314 266.4791 15.08845698 72061,6917.863,95.437,540.411,539.045,0.0
52281.0,STARLINK-3779,PAYLOAD,2023-08-02 06:14:11,15.08835222,0.0001044,53.2175,55.7673,91.1395,268.9717,-1.0871e-05,-4.61e-06,0.0,0 STARLINK-3779,1 52281U 22041W   23214.25985345 -.00000461  00000-0 -10871-4 0  9994,2 52281  53.2175  55.7673 0001044  91.1395 268.9717 15.08835222 72109,6917.895,95.438,540.482,539.038,0.0
52281.0,STARLINK-3779,PAYLOAD,2023-08-02 23:43:25,15.08850764,0.0001007,53.2171,52.4974,95.4448,264.6659,0.00022526,3.3e-05,0.0,0 STARLINK-3779,1 52281U 22041W   23214.98848865  .00003300  00000-0  22526-3 0  9991,2 52281  53.2171  52.4974 0001007  95.4448 264.6659 15.08850764 72216,6917.847,95.437,540.409,539.016,0.0
52281.0,STARLINK-3779,PAYLOAD,2023-08-03 18:48:03,15.08833786,0.0001212,53.2183,48.9269,90.6875,269.4256,-3.1977e-05,-7.97e-06,0.0,0 STARLINK-3779,1 52281U 22041W   23215.78337951 -.00000797  00000-0 -31977-4 0  9999,2 52281  53.2183  48.9269 0001212  90.6875 269.4256 15.08833786 72339,6917.899,95.438,540.603,538.926,0.0
52281.0,STARLINK-3779,PAYLOAD,2023-08-04 20:14:14,15.08842059,0.0001042,53.2186,44.1688,95.6894,264.4217,8.0793e-05,9.98e-06,0.0,0 STARLINK-3779,1 52281U 22041W   23216.84321905  .00000998  00000-0  80793-4 0  9990,2 52281  53.2186  44.1688 0001042  95.6894 264.4217 15.08842059 72494,6917.874,95.437,540.46,539.018,0.0
52281.0,STARLINK-3779,PAYLOAD,2023-08-05 18:29:37,15.08857094,0.0001201,53.2181,40.0105,72.3198,287.7925,0.0003751,5.69e-05,0.0,0 STARLINK-3779,1 52281U 22041W   23217.77057260  .00005690  00000-0  37510-3 0  9995,2 52281  53.2181  40.0105 0001201  72.3198 287.7925 15.08857094 72639,6917.828,95.436,540.524,538.862,0.0
52281.0,STARLINK-3779,PAYLOAD,2023-08-06 05:37:19,15.0883263,9.89e-05,53.2187,37.9258,92.58,267.5305,-0.00022793,-3.913e-05,0.0,0 STARLINK-3779,1 52281U 22041W   23218.23425777 -.00003913  00000-0 -22793-3 0  9994,2 52281  53.2187  37.9258 0000989  92.5800 267.5305 15.08832630 72700,6917.903,95.438,540.452,539.084,0.0
52281.0,STARLINK-3779,PAYLOAD,2023-08-07 18:11:12,15.08843585,9.54e-05,53.2183,31.0872,108.9587,251.1508,0.00053095,8.173e-05,0.0,0 STARLINK-3779,1 52281U 22041W   23219.75778901  .00008173  00000-0  53095-3 0  9992,2 52281  53.2183  31.0872 0000954 108.9587 251.1508 15.08843585 72939,6917.869,95.437,540.394,539.074,0.0
52281.0,STARLINK-3779,PAYLOAD,2023-08-08 21:12:45,15.08869448,0.0001028,53.218,26.0337,96.2577,263.8532,0.0010158,0.00015928,0.0,0 STARLINK-3779,1 52281U 22041W   23220.88386312  .00015928  00000-0  10158-2 0  9997,2 52281  53.2180  26.0337 0001028  96.2577 263.8532 15.08869448 73100,6917.79,95.436,540.367,538.944,0.0
52281.0,STARLINK-3779,PAYLOAD,2023-08-09 09:55:51,15.08853542,0.0001643,53.2188,23.6523,88.738,271.38,0.00069105,0.00010731,0.0,0 STARLINK-3779,1 52281U 22041W   23221.41378590  .00010731  00000-0  69105-3 0  9990,2 52281  53.2188  23.6523 0001643  88.7380 271.3800 15.08853542 73187,6917.839,95.437,540.841,538.567,0.0
52281.0,STARLINK-3779,PAYLOAD,2023-08-10 11:22:01,15.08848701,0.0001228,53.2183,18.8973,108.9951,251.1174,0.00063703,9.867e-05,0.0,0 STARLINK-3779,1 52281U 22041W   23222.47362547  .00009867  00000-0  63703-3 0  9998,2 52281  53.2183  18.8973 0001228 108.9951 251.1174 15.08848701 73344,6917.854,95.437,540.568,538.869,0.0
52281.0,STARLINK-3779,PAYLOAD,2023-08-11 09:37:25,15.08840412,0.0001043,53.2178,14.7353,95.2114,264.8997,0.00013109,1.799e-05,0.0,0 STARLINK-3779,1 52281U 22041W   23223.40098560  .00001799  00000-0  13109-3 0  9994,2 52281  53.2178  14.7353 0001043  95.2114 264.8997 15.08840412 73489,6917.879,95.438,540.466,539.023,0.0
52281.0,STARLINK-3779,PAYLOAD,2023-08-12 11:03:35,15.08835436,4.6e-05,53.2174,9.9763,83.6118,276.4927,-2.4591e-05,-6.79e-06,0.0,0 STARLINK-3779,1 52281U 22041W   23224.46082939 -.00000679  00000-0 -24591-4 0  9990,2 52281  53.2174   9.9763 0000460  83.6118 276.4927 15.08835436 73643,6917.894,95.438,540.078,539.441,0.0
52281.0,STARLINK-3779,PAYLOAD,2023-08-13 02:57:26,15.08847339,7.59e-05,53.2169,7.0022,75.9287,284.179,0.00014543,2.028e-05,0.0,0 STARLINK-3779,1 52281U 22041W   23225.12322356  .00002028  00000-0  14543-3 0  9997,2 52281  53.2169   7.0022 0000759  75.9287 284.1790 15.08847339 73746,6917.858,95.437,540.248,539.198,0.0
52281.0,STARLINK-3779,PAYLOAD,2023-08-14 02:48:13,15.08840503,9.91e-05,53.2177,2.5397,94.0142,266.0964,2.6098e-05,1.28e-06,0.0,0 STARLINK-3779,1 52281U 22041W   23226.11682791  .00000128  00000-0  26098-4 0  9997,2 52281  53.2177   2.5397 0000991  94.0142 266.0964 15.08840503 73894,6917.879,95.438,540.429,539.058,0.0
52281.0,STARLINK-3779,PAYLOAD,2023-08-15 18:32:54,15.08807628,0.0001438,53.217,355.107,99.3306,260.7849,0.0013524,0.00021282,0.0,0 STARLINK-3779,1 52281U 22041W   23227.77285041  .00021282  00000-0  13524-2 0  9999,2 52281  53.2170 355.1070 0001438  99.3306 260.7849 15.08807628 74142,6917.979,95.44,540.839,538.85,0.0
52281.0,STARLINK-3779,PAYLOAD,2023-08-16 08:51:20,15.08840349,0.0001285,53.2159,352.428,104.3507,255.7628,8.0456e-05,9.93e-06,0.0,0 STARLINK-3779,1 52281U 22041W   23228.36899002  .00000993  00000-0  80456-4 0  9999,2 52281  53.2159 352.4280 0001285 104.3507 255.7628 15.08840349 74238,6917.879,95.438,540.633,538.855,0.0
52281.0,STARLINK-3779,PAYLOAD,2023-08-18 00:35:59,15.08841737,0.0001146,53.218,344.9981,96.6871,263.4252,0.00014043,1.948e-05,0.0,0 STARLINK-3779,1 52281U 22041W   23230.02498865  .00001948  00000-0  14043-3 0  9996,2 52281  53.2180 344.9981 0001146  96.6871 263.4252 15.08841737 74487,6917.875,95.437,540.533,538.947,0.0
52281.0,STARLINK-3779,PAYLOAD,2023-08-18 08:32:55,15.08833158,0.000126,53.2208,343.5127,108.2431,251.8698,-2.4637e-05,-6.8e-06,0.0,0 STARLINK-3779,1 52281U 22041W   23230.35619348 -.00000680  00000-0 -24637-4 0  9998,2 52281  53.2208 343.5127 0001260 108.2431 251.8698 15.08833158 74533,6917.901,95.438,540.638,538.895,0.0
52281.0,STARLINK-3779,PAYLOAD,2023-08-18 18:05:13,15.08842626,0.0001127,53.2163,341.7256,98.173,261.939,9.5794e-05,1.237e-05,0.0,0 STARLINK-3779,1 52281U 22041W   23230.75362865  .00001237  00000-0  95794-4 0  9990,2 52281  53.2163 341.7256 0001127  98.1730 261.9390 15.08842626 74594,6917.872,95.437,540.517,538.958,0.0
